{"type": "FeatureCollection", "features": [{"type": "Feature", "properties": {"norad_id": 28890, "name": "BEIJING 1", "group": "dmc", "lat": 67.09507979539559, "lon": -42.70349565906972, "alt_km": 665.5889465962446, "timestamp": "2025-12-15T15:53:19.544980+00:00", "meta": {"OBJECT_NAME": "BEIJING 1", "OBJECT_ID": "2005-043A", "EPOCH": "2025-12-14T22:58:17.660640", "MEAN_MOTION": 14.6337014, "ECCENTRICITY": 0.00154261, "INCLINATION": 98.2647, "RA_OF_ASC_NODE": 116.4687, "ARG_OF_PERICENTER": 134.5691, "MEAN_ANOMALY": 225.6773, "EPHEMERIS_TYPE": 0, "CLASSIFICATION_TYPE": "U", "NORAD_CAT_ID": 28890, "ELEMENT_SET_NO": 999, "REV_AT_EPOCH": 7370, "BSTAR": 0.00015529116, "MEAN_MOTION_DOT": 7.55e-06, "MEAN_MOTION_DDOT": 0}, "tle": {"line1": "1 28890U 05043A   25348.95714885  .00000755  00000+0  15529-3 0  9999", "line2": "2 28890  98.2647 116.4687 0015426 134.5691 225.6773 14.63370140 73703"}}, "geometry": {"type": "Point", "coordinates": [-42.70349565906972, 67.09507979539559]}}, {"type": "Feature", "properties": {"norad_id": 33320, "name": "HUANJING 1A (HJ-1A)", "group": "dmc", "lat": -11.025182253985014, "lon": -20.65993586600614, "alt_km": 611.616405236543, "timestamp": "2025-12-15T15:53:19.545011+00:00", "meta": {"OBJECT_NAME": "HUANJING 1A (HJ-1A)", "OBJECT_ID": "2008-041A", "EPOCH": "2025-12-14T23:44:58.998336", "MEAN_MOTION": 14.83404436, "ECCENTRICITY": 0.00199985, "INCLINATION": 97.6542, "RA_OF_ASC_NODE": 337.1942, "ARG_OF_PERICENTER": 27.2683, "MEAN_ANOMALY": 332.9577, "EPHEMERIS_TYPE": 0, "CLASSIFICATION_TYPE": "U", "NORAD_CAT_ID": 33320, "ELEMENT_SET_NO": 999, "REV_AT_EPOCH": 93109, "BSTAR": 0.00026301968, "MEAN_MOTION_DOT": 2.114e-05, "MEAN_MOTION_DDOT": 0}, "tle": {"line1": "1 33320U 08041A   25348.98957174  .00002114  00000+0  26302-3 0  9999", "line2": "2 33320  97.6542 337.1942 0019998  27.2683 332.9577 14.83404436931094"}}, "geometry": {"type": "Point", "coordinates": [-20.65993586600614, -11.025182253985014]}}, {"type": "Feature", "properties": {"norad_id": 33321, "name": "HUANJING 1B (HJ-1B)", "group": "dmc", "lat": -24.381857041836756, "lon": 158.04006837350317, "alt_km": 645.8084425791594, "timestamp": "2025-12-15T15:53:19.545024+00:00", "meta": {"OBJECT_NAME": "HUANJING 1B (HJ-1B)", "OBJECT_ID": "2008-041B", "EPOCH": "2025-12-14T22:46:38.258688", "MEAN_MOTION": 14.82831512, "ECCENTRICITY": 0.00381689, "INCLINATION": 97.6403, "RA_OF_ASC_NODE": 340.8467, "ARG_OF_PERICENTER": 68.7673, "MEAN_ANOMALY": 291.7612, "EPHEMERIS_TYPE": 0, "CLASSIFICATION_TYPE": "U", "NORAD_CAT_ID": 33321, "ELEMENT_SET_NO": 999, "REV_AT_EPOCH": 93110, "BSTAR": 0.00027524274, "MEAN_MOTION_DOT": 2.204e-05, "MEAN_MOTION_DDOT": 0}, "tle": {"line1": "1 33321U 08041B   25348.94905392  .00002204  00000+0  27524-3 0  9998", "line2": "2 33321  97.6403 340.8467 0038168  68.7673 291.7612 14.82831512931105"}}, "geometry": {"type": "Point", "coordinates": [158.04006837350317, -24.381857041836756]}}, {"type": "Feature", "properties": {"norad_id": 33446, "name": "YAOGAN-4", "group": "dmc", "lat": 64.2936275046859, "lon": 116.53652803866365, "alt_km": 623.467654568497, "timestamp": "2025-12-15T15:53:19.545034+00:00", "meta": {"OBJECT_NAME": "YAOGAN-4", "OBJECT_ID": "2008-061A", "EPOCH": "2025-12-14T19:56:16.699776", "MEAN_MOTION": 14.82690709, "ECCENTRICITY": 0.00134312, "INCLINATION": 97.9179, "RA_OF_ASC_NODE": 278.9095, "ARG_OF_PERICENTER": 315.9902, "MEAN_ANOMALY": 44.0242, "EPHEMERIS_TYPE": 0, "CLASSIFICATION_TYPE": "U", "NORAD_CAT_ID": 33446, "ELEMENT_SET_NO": 999, "REV_AT_EPOCH": 91834, "BSTAR": 0.00021548269, "MEAN_MOTION_DOT": 1.687e-05, "MEAN_MOTION_DDOT": 0}, "tle": {"line1": "1 33446U 08061A   25348.83074884  .00001687  00000+0  21548-3 0  9993", "line2": "2 33446  97.9179 278.9095 0013431 315.9902  44.0242 14.82690709918342"}}, "geometry": {"type": "Point", "coordinates": [116.53652803866365, 64.2936275046859]}}, {"type": "Feature", "properties": {"norad_id": 35681, "name": "DEIMOS-1", "group": "dmc", "lat": 16.712385834380264, "lon": -27.538497607088498, "alt_km": 645.8537029747404, "timestamp": "2025-12-15T15:53:19.545045+00:00", "meta": {"OBJECT_NAME": "DEIMOS-1", "OBJECT_ID": "2009-041A", "EPOCH": "2025-12-14T21:14:33.398592", "MEAN_MOTION": 14.74958653, "ECCENTRICITY": 0.00027201, "INCLINATION": 97.7147, "RA_OF_ASC_NODE": 149.3884, "ARG_OF_PERICENTER": 76.4838, "MEAN_ANOMALY": 283.6675, "EPHEMERIS_TYPE": 0, "CLASSIFICATION_TYPE": "U", "NORAD_CAT_ID": 35681, "ELEMENT_SET_NO": 999, "REV_AT_EPOCH": 87971, "BSTAR": 0.00019439256, "MEAN_MOTION_DOT": 1.259e-05, "MEAN_MOTION_DDOT": 0}, "tle": {"line1": "1 35681U 09041A   25348.88510878  .00001259  00000+0  19439-3 0  9999", "line2": "2 35681  97.7147 149.3884 0002720  76.4838 283.6675 14.74958653879715"}}, "geometry": {"type": "Point", "coordinates": [-27.538497607088498, 16.712385834380264]}}, {"type": "Feature", "properties": {"norad_id": 35683, "name": "UK-DMC 2", "group": "dmc", "lat": -5.221815430051065, "lon": -56.24162675018008, "alt_km": 646.8330208365787, "timestamp": "2025-12-15T15:53:19.545055+00:00", "meta": {"OBJECT_NAME": "UK-DMC 2", "OBJECT_ID": "2009-041C", "EPOCH": "2025-12-14T22:46:42.124224", "MEAN_MOTION": 14.75629993, "ECCENTRICITY": 0.00014859, "INCLINATION": 97.8555, "RA_OF_ASC_NODE": 123.7888, "ARG_OF_PERICENTER": 96.5163, "MEAN_ANOMALY": 263.6216, "EPHEMERIS_TYPE": 0, "CLASSIFICATION_TYPE": "U", "NORAD_CAT_ID": 35683, "ELEMENT_SET_NO": 999, "REV_AT_EPOCH": 87939, "BSTAR": 0.00025271201, "MEAN_MOTION_DOT": 1.676e-05, "MEAN_MOTION_DDOT": 0}, "tle": {"line1": "1 35683U 09041C   25348.94909866  .00001676  00000+0  25271-3 0  9991", "line2": "2 35683  97.8555 123.7888 0001485  96.5163 263.6216 14.75629993879398"}}, "geometry": {"type": "Point", "coordinates": [-56.24162675018008, -5.221815430051065]}}, {"type": "Feature", "properties": {"norad_id": 40715, "name": "DMC3-FM1", "group": "dmc", "lat": -22.69053703547094, "lon": -140.02233995064145, "alt_km": 614.8245203467914, "timestamp": "2025-12-15T15:53:19.545065+00:00", "meta": {"OBJECT_NAME": "DMC3-FM1", "OBJECT_ID": "2015-032A", "EPOCH": "2025-12-14T22:12:29.572992", "MEAN_MOTION": 14.85446025, "ECCENTRICITY": 0.00045036, "INCLINATION": 97.6693, "RA_OF_ASC_NODE": 216.0382, "ARG_OF_PERICENTER": 312.8036, "MEAN_ANOMALY": 47.2801, "EPHEMERIS_TYPE": 0, "CLASSIFICATION_TYPE": "U", "NORAD_CAT_ID": 40715, "ELEMENT_SET_NO": 999, "REV_AT_EPOCH": 56255, "BSTAR": 0.0001544865, "MEAN_MOTION_DOT": 1.28e-05, "MEAN_MOTION_DDOT": 0}, "tle": {"line1": "1 40715U 15032A   25348.92534228  .00001280  00000+0  15449-3 0  9991", "line2": "2 40715  97.6693 216.0382 0004503 312.8036  47.2801 14.85446025562550"}}, "geometry": {"type": "Point", "coordinates": [-140.02233995064145, -22.69053703547094]}}, {"type": "Feature", "properties": {"norad_id": 40716, "name": "DMC3-FM2", "group": "dmc", "lat": -36.655562732285155, "lon": 32.434338215515716, "alt_km": 619.133731497237, "timestamp": "2025-12-15T15:53:19.545075+00:00", "meta": {"OBJECT_NAME": "DMC3-FM2", "OBJECT_ID": "2015-032B", "EPOCH": "2025-12-14T22:44:52.818720", "MEAN_MOTION": 14.85450279, "ECCENTRICITY": 0.00050892, "INCLINATION": 97.6752, "RA_OF_ASC_NODE": 217.5055, "ARG_OF_PERICENTER": 318.7997, "MEAN_ANOMALY": 41.2834, "EPHEMERIS_TYPE": 0, "CLASSIFICATION_TYPE": "U", "NORAD_CAT_ID": 40716, "ELEMENT_SET_NO": 999, "REV_AT_EPOCH": 56255, "BSTAR": 0.00019708011, "MEAN_MOTION_DOT": 1.648e-05, "MEAN_MOTION_DDOT": 0}, "tle": {"line1": "1 40716U 15032B   25348.94783355  .00001648  00000+0  19708-3 0  9991", "line2": "2 40716  97.6752 217.5055 0005089 318.7997  41.2834 14.85450279562557"}}, "geometry": {"type": "Point", "coordinates": [32.434338215515716, -36.655562732285155]}}, {"type": "Feature", "properties": {"norad_id": 40717, "name": "DMC3-FM3", "group": "dmc", "lat": 76.3184345542883, "lon": 73.49616396968993, "alt_km": 607.533606455223, "timestamp": "2025-12-15T15:53:19.545085+00:00", "meta": {"OBJECT_NAME": "DMC3-FM3", "OBJECT_ID": "2015-032C", "EPOCH": "2025-12-14T21:39:02.636640", "MEAN_MOTION": 14.85434908, "ECCENTRICITY": 0.00045095, "INCLINATION": 97.6806, "RA_OF_ASC_NODE": 219.0958, "ARG_OF_PERICENTER": 320.7708, "MEAN_ANOMALY": 39.318, "EPHEMERIS_TYPE": 0, "CLASSIFICATION_TYPE": "U", "NORAD_CAT_ID": 40717, "ELEMENT_SET_NO": 999, "REV_AT_EPOCH": 56255, "BSTAR": 8.7156959e-05, "MEAN_MOTION_DOT": 7e-06, "MEAN_MOTION_DDOT": 0}, "tle": {"line1": "1 40717U 15032C   25348.90211385  .00000700  00000+0  87157-4 0  9999", "line2": "2 40717  97.6806 219.0958 0004509 320.7708  39.3180 14.85434908562559"}}, "geometry": {"type": "Point", "coordinates": [73.49616396968993, 76.3184345542883]}}]}